NORAD_CAT_ID,OBJECT_NAME,OBJECT_TYPE,EPOCH,MEAN_MOTION,ECCENTRICITY,INCLINATION,RA_OF_ASC_NODE,ARG_OF_PERICENTER,MEAN_ANOMALY,BSTAR,MEAN_MOTION_DOT,MEAN_MOTION_DDOT,TLE_LINE0,TLE_LINE1,TLE_LINE2,SEMIMAJOR_AXIS,PERIOD,APOGEE,PERIGEE,DECAYED
51725.0,STARLINK-3522,PAYLOAD,2023-08-23 02:30:10,15.08837296,0.0001324,53.2175,182.1895,89.27,270.8444,2.7396e-05,1.48e-06,0.0,0 STARLINK-3522,1 51725U 22016M   23235.10428681  .00000148  00000-0  27396-4 0  9990,2 51725  53.2175 182.1895 0001324  89.2700 270.8444 15.08837296 84218,6917.889,95.438,540.67,538.838,0.0
51725.0,STARLINK-3522,PAYLOAD,2023-08-23 07:16:19,15.08843904,0.0001346,53.2174,181.2959,97.3789,262.7356,5.5792e-05,6e-06,0.0,0 STARLINK-3522,1 51725U 22016M   23235.30300150  .00000600  00000-0  55792-4 0  9996,2 51725  53.2174 181.2959 0001346  97.3789 262.7356 15.08843904 84247,6917.868,95.437,540.665,538.802,0.0
51725.0,STARLINK-3522,PAYLOAD,2023-08-24 05:31:43,15.08834444,0.0001398,53.2184,177.1312,95.0216,265.0935,0.00014893,2.083e-05,0.0,0 STARLINK-3522,1 51725U 22016M   23236.23036656  .00002083  00000-0  14893-3 0  9999,2 51725  53.2184 177.1312 0001398  95.0216 265.0935 15.08834444 83250,6917.897,95.438,540.729,538.795,0.0
51725.0,STARLINK-3522,PAYLOAD,2023-08-25 05:22:29,15.08849399,0.0001483,53.2186,172.6706,85.2207,274.8954,8.6427e-05,1.088e-05,0.0,0 STARLINK-3522,1 51725U 22016M   23237.22395736  .00001088  00000-0  86427-4 0  9993,2 51725  53.2186 172.6706 0001483  85.2207 274.8954 15.08849399 84531,6917.852,95.437,540.743,538.691,0.0
51725.0,STARLINK-3522,PAYLOAD,2023-08-26 00:27:07,15.08846425,0.0001484,53.2178,169.101,113.2646,246.8502,8.0948e-06,-1.59e-06,0.0,0 STARLINK-3522,1 51725U 22016M   23238.01883810 -.00000159  00000-0  80948-5 0  9998,2 51725  53.2178 169.1010 0001484 113.2646 246.8502 15.08846425 84659,6917.861,95.437,540.752,538.699,0.0
51725.0,STARLINK-3522,PAYLOAD,2023-08-26 05:13:16,15.08848148,0.0001354,53.2178,168.2109,96.4308,263.6839,3.812e-05,3.19e-06,0.0,0 STARLINK-3522,1 51725U 22016M   23238.21755641  .00000319  00000-0  38120-4 0  9991,2 51725  53.2178 168.2109 0001354  96.4308 263.6839 15.08848148 83553,6917.855,95.437,540.657,538.784,0.0
51725.0,STARLINK-3522,PAYLOAD,2023-08-27 03:28:41,15.08845646,0.0001367,53.2178,164.0475,98.4276,261.6871,-0.0001246,-2.271e-05,0.0,0 STARLINK-3522,1 51725U 22016M   23239.14492311 -.00002271  00000-0 -12460-3 0  9995,2 51725  53.2178 164.0475 0001367  98.4276 261.6871 15.08845646 84828,6917.863,95.437,540.674,538.782,0.0
51725.0,STARLINK-3522,PAYLOAD,2023-08-27 05:04:04,15.08841381,0.0001488,53.2181,163.7496,109.6948,250.4204,-4.6215e-05,-1.023e-05,0.0,0 STARLINK-3522,1 51725U 22016M   23239.21116206 -.00001023  00000-0 -46215-4 0  9999,2 51725  53.2181 163.7496 0001488 109.6948 250.4204 15.08841381 83700,6917.876,95.437,540.771,538.712,0.0
51725.0,STARLINK-3522,PAYLOAD,2023-08-28 19:13:20,15.08820446,0.0001501,53.2175,156.6165,106.3385,253.7772,0.00011859,1.599e-05,0.0,0 STARLINK-3522,1 51725U 22016M   23240.80093364  .00001599  00000-0  11859-3 0  9996,2 51725  53.2175 156.6165 0001501 106.3385 253.7772 15.08820446 85079,6917.94,95.439,540.844,538.767,0.0
51725.0,STARLINK-3522,PAYLOAD,2023-08-29 01:34:52,15.08837455,0.0001469,53.2185,155.431,106.7541,253.3613,5.8336e-05,6.41e-06,0.0,0 STARLINK-3522,1 51725U 22016M   23241.06588810  .00000641  00000-0  58336-4 0  9999,2 51725  53.2185 155.4310 0001469 106.7541 253.3613 15.08837455 85113,6917.888,95.438,540.769,538.737,0.0
51725.0,STARLINK-3522,PAYLOAD,2023-08-29 11:07:11,15.08838561,0.000134,53.2175,153.6429,87.3492,272.7653,1.7361e-05,-1.2e-07,0.0,0 STARLINK-3522,1 51725U 22016M   23241.46332879 -.00000012  00000-0  17361-4 0  9991,2 51725  53.2175 153.6429 0001340  87.3492 272.7653 15.08838561 84049,6917.885,95.438,540.677,538.823,0.0
51725.0,STARLINK-3522,PAYLOAD,2023-08-30 03:01:02,15.08853833,0.0001382,53.218,150.6716,83.7631,276.3518,0.00019657,2.843e-05,0.0,0 STARLINK-3522,1 51725U 22016M   23242.12571803  .00002843  00000-0  19657-3 0  9999,2 51725  53.2180 150.6716 0001382  83.7631 276.3518 15.08853833 85277,6917.838,95.437,540.659,538.747,0.0
51725.0,STARLINK-3522,PAYLOAD,2023-08-30 10:57:58,15.08843367,0.0001314,53.2178,149.1836,91.1695,268.9448,7.901e-05,9.7e-06,0.0,0 STARLINK-3522,1 51725U 22016M   23242.45692663  .00000970  00000-0  79010-4 0  9992,2 51725  53.2178 149.1836 0001314  91.1695 268.9448 15.08843367 85324,6917.87,95.437,540.644,538.826,0.0
51725.0,STARLINK-3522,PAYLOAD,2023-08-31 02:51:50,15.08836716,0.0001232,53.2178,146.2101,91.9815,268.1318,7.3964e-06,-1.7e-06,0.0,0 STARLINK-3522,1 51725U 22016M   23243.11933374 -.00000170  00000-0  73964-5 0  9999,2 51725  53.2178 146.2101 0001232  91.9815 268.1318 15.08836716 85427,6917.89,95.438,540.608,538.903,0.0
51725.0,STARLINK-3522,PAYLOAD,2023-09-01 10:39:32,15.08847337,0.0001326,53.2162,140.2613,91.4311,268.6833,-9.5011e-05,-1.8e-05,0.0,0 STARLINK-3522,1 51725U 22016M   23244.44413131 -.00001800  00000-0 -95011-4 0  9998,2 51725  53.2162 140.2613 0001326  91.4311 268.6833 15.08847337 85622,6917.858,95.437,540.64,538.806,0.0
51725.0,STARLINK-3522,PAYLOAD,2023-09-02 10:30:19,15.08844291,0.0001402,53.2171,135.8,86.7266,273.3886,8.9948e-05,1.144e-05,0.0,0 STARLINK-3522,1 51725U 22016M   23245.43772679  .00001144  00000-0  89948-4 0  9994,2 51725  53.2171 135.8000 0001402  86.7266 273.3886 15.08844291 84641,6917.867,95.437,540.702,538.762,0.0
51725.0,STARLINK-3522,PAYLOAD,2023-09-03 02:24:11,15.08842441,0.000124,53.2181,132.8245,101.5618,258.5513,5.1574e-05,5.33e-06,0.0,0 STARLINK-3522,1 51725U 22016M   23246.10012902  .00000533  00000-0  51574-4 0  9990,2 51725  53.2181 132.8245 0001240 101.5618 258.5513 15.08842441 85870,6917.873,95.437,540.596,538.88,0.0
51725.0,STARLINK-3522,PAYLOAD,2023-09-04 02:14:58,15.08837562,0.0001361,53.218,128.3662,82.0404,278.0743,2.9846e-05,1.87e-06,0.0,0 STARLINK-3522,1 51725U 22016M   23247.09373505  .00000187  00000-0  29846-4 0  9990,2 51725  53.2180 128.3662 0001361  82.0404 278.0743 15.08837562 86020,6917.888,95.438,540.694,538.811,0.0
51725.0,STARLINK-3522,PAYLOAD,2023-09-05 00:30:22,15.08838989,0.0001254,53.2177,124.2041,88.2501,271.8634,-3.1561e-05,-7.9e-06,0.0,0 STARLINK-3522,1 51725U 22016M   23248.02109825 -.00000790  00000-0 -31561-4 0  9995,2 51725  53.2177 124.2041 0001254  88.2501 271.8634 15.08838989 85033,6917.883,95.438,540.616,538.881,0.0
51725.0,STARLINK-3522,PAYLOAD,2023-09-06 00:21:09,15.0883862,0.0001366,53.2182,119.7433,84.9898,275.125,5.3741e-05,5.67e-06,0.0,0 STARLINK-3522,1 51725U 22016M   23249.01469784  .00000567  00000-0  53741-4 0  9992,2 51725  53.2182 119.7433 0001366  84.9898 275.1250 15.08838620 86314,6917.885,95.438,540.695,538.805,0.0
51725.0,STARLINK-3522,PAYLOAD,2023-09-07 01:47:19,15.08842024,0.000136,53.2184,114.9854,88.7627,271.3521,3.9554e-05,3.42e-06,0.0,0 STARLINK-3522,1 51725U 22016M   23250.07453693  .00000342  00000-0  39554-4 0  9999,2 51725  53.2184 114.9854 0001360  88.7627 271.3521 15.08842024 86475,6917.874,95.437,540.68,538.798,0.0
51725.0,STARLINK-3522,PAYLOAD,2023-09-07 14:30:25,15.08837993,0.0001414,53.2181,112.6065,82.9507,277.1646,1.847e-05,6e-08,0.0,0 STARLINK-3522,1 51725U 22016M   23250.60446001  .00000006  00000-0  18470-4 0  9994,2 51725  53.2181 112.6065 0001414  82.9507 277.1646 15.08837993 85429,6917.887,95.438,540.73,538.773,0.0
51725.0,STARLINK-3522,PAYLOAD,2023-09-08 00:02:44,15.08839494,0.000146,53.2162,110.8217,87.4466,272.6693,2.2443e-05,6.9e-07,0.0,0 STARLINK-3522,1 51725U 22016M   23251.00189940  .00000069  00000-0  22443-4 0  9999,2 51725  53.2162 110.8217 0001460  87.4466 272.6693 15.08839494 85488,6917.882,95.438,540.757,538.737,0.0
51725.0,STARLINK-3522,PAYLOAD,2023-09-08 20:42:44,15.08841064,0.0001409,53.2172,106.9563,86.2955,273.8199,6.5061e-05,7.48e-06,0.0,0 STARLINK-3522,1 51725U 22016M   23251.86301619  .00000748  00000-0  65061-4 0  9999,2 51725  53.2172 106.9563 0001409  86.2955 273.8199 15.08841064 85617,6917.877,95.437,540.717,538.767,0.0
51725.0,STARLINK-3522,PAYLOAD,2023-09-09 07:50:26,15.0883656,0.0001268,53.2187,104.8715,111.5172,248.5955,7.0436e-05,8.33e-06,0.0,0 STARLINK-3522,1 51725U 22016M   23252.32669694  .00000833  00000-0  70436-4 0  9998,2 51725  53.2187 104.8715 0001268 111.5172 248.5955 15.08836560 86812,6917.891,95.438,540.633,538.879,0.0
51725.0,STARLINK-3522,PAYLOAD,2023-09-09 18:58:09,15.0879785,0.0001715,53.2179,102.7897,107.2477,252.8703,0.00058319,8.995e-05,0.0,0 STARLINK-3522,1 51725U 22016M   23252.79038513  .00008995  00000-0  58319-3 0  9991,2 51725  53.2179 102.7897 0001715 107.2477 252.8703 15.08797850 86882,6918.009,95.44,541.061,538.688,0.0
51725.0,STARLINK-3522,PAYLOAD,2023-09-09 23:44:18,15.08825478,0.0001538,53.218,101.8978,109.7407,250.3751,0.00022923,3.361e-05,0.0,0 STARLINK-3522,1 51725U 22016M   23252.98910090  .00003361  00000-0  22923-3 0  9995,2 51725  53.2180 101.8978 0001538 109.7407 250.3751 15.08825478 86915,6917.925,95.438,540.854,538.726,0.0
51725.0,STARLINK-3522,PAYLOAD,2023-09-10 14:02:46,15.08836266,0.0001525,53.218,99.2214,105.7727,254.3433,-1.812e-05,-5.76e-06,0.0,0 STARLINK-3522,1 51725U 22016M   23253.58526166 -.00000576  00000-0 -18120-4 0  9991,2 51725  53.2180  99.2214 0001525 105.7727 254.3433 15.08836266 85877,6917.892,95.438,540.812,538.702,0.0
51725.0,STARLINK-3522,PAYLOAD,2023-09-10 18:48:55,15.0884017,0.0001365,53.2177,98.3314,100.8402,259.2744,-4.3708e-05,-9.83e-06,0.0,0 STARLINK-3522,1 51725U 22016M   23253.78398074 -.00000983  00000-0 -43708-4 0  9990,2 51725  53.2177  98.3314 0001365 100.8402 259.2744 15.08840170 87030,6917.88,95.438,540.689,538.801,0.0
51725.0,STARLINK-3522,PAYLOAD,2023-09-10 23:35:05,15.08841573,0.0001209,53.2168,97.4407,89.5387,270.5744,-3.2154e-05,-8e-06,0.0,0 STARLINK-3522,1 51725U 22016M   23253.98269982 -.00000800  00000-0 -32154-4 0  9998,2 51725  53.2168  97.4407 0001209  89.5387 270.5744 15.08841573 85936,6917.876,95.437,540.577,538.904,0.0
